{"1.29531332,103.871146":{"BUILDINGNAME":"10","BLOCK":"10","ROAD":"EAST COAST PARKWAY","POSTALCODE":"10","XCOORD":"6","YCOORD":"6","LATITUDE":"1.0163185205222343","LONGITUDE":"103.58180571057353"},"1.319541067,103.8785627":{"BUILDINGNAME":"10","BLOCK":"10","ROAD":"PAN ISLAND EXPRESSWAY","POSTALCODE":"10","XCOORD":"6","YCOORD":"6","LATITUDE":"1.0163185205222343","LONGITUDE":"103.58180571057353"},"1.323957439,103.8728576":{"BUILDINGNAME":"10","BLOCK":"10","ROAD":"PAN ISLAND EXPRESSWAY","POSTALCODE":"10","XCOORD":"6","YCOORD":"6","LATITUDE":"1.0163185205222343","LONGITUDE":"103.58180571057353"},"1.319535712,103.8750668":{"BUILDINGNAME":"10","BLOCK":"10","ROAD":"SIMS WAY","POSTALCODE":"10","XCOORD":"6","YCOORD":"6","LATITUDE":"1.0163185205222343","LONGITUDE":"103.58180571057353"},"1.363519886,103.905394":{"BUILDINGNAME":"10","BLOCK":"10","ROAD":"KALLANG PAYA LEBAR EXPRESSWAY","POSTALCODE":"10","XCOORD":"6","YCOORD":"6","LATITUDE":"1.0163185205222343","LONGITUDE":"103.58180571057353"},"1.357098686,103.902042":{"BUILDINGNAME":"10","BLOCK":"10","ROAD":"KALLANG PAYA LEBAR EXPRESSWAY","POSTALCODE":"10","XCOORD":"6","YCOORD":"6","LATITUDE":"1.0163185205222343","LONGITUDE":"103.58180571057353"},"1.365434,103.953997":{"BUILDINGNAME":"10","BLOCK":"10","ROAD":"TAMPINES EXPRESSWAY","POSTALCODE":"10","XCOORD":"6","YCOORD":"6","LATITUDE":"1.0163185205222343","LONGITUDE":"103.58180571057353"},"1.3605,103.961412":{"BUILDINGNAME":"10","BLOCK":"10","ROAD":"LOYANG AVENUE","POSTALCODE":"10","XCOORD":"6","YCOORD":"6","LATITUDE":"1.0163185205222343","LONGITUDE":"103.58180571057353"},"1.27414394350065,103.851316802547":{"BUILDINGNAME":"10","BLOCK":"10","ROAD":"STRAITS BOULEVARD","POSTALCODE":"10","XCOORD":"6","YCOORD":"6","LATITUDE":"1.0163185205222343","LONGITUDE":"103.58180571057353"},"1.27135090682664,103.861828440597":{"BUILDINGNAME":"10","BLOCK":"10","ROAD":"MARINA LINK","POSTALCODE":"10","XCOORD":"6","YCOORD":"6","LATITUDE":"1.0163185205222343","LONGITUDE":"103.58180571057353"},"1.29409891409364,103.876056196568":{"BUILDINGNAME":"10","BLOCK":"10","ROAD":"EAST COAST PARKWAY","POSTALCODE":"10","XCOORD":"6","YCOORD":"6","LATITUDE":"1.0163185205222343","LONGITUDE":"103.58180571057353"},"1.2752977149006,103.866390381759":{"BUILDINGNAME":"10","BLOCK":"10","ROAD":"MARINA LINK","POSTALCODE":"10","XCOORD":"6","YCOORD":"6","LATITUDE":"1.0163185205222343","LONGITUDE":"103.58180571057353"},"1.34355015,103.8601984":{"BUILDINGNAME":"10","BLOCK":"10","ROAD":"BRADDELL ROAD","POSTALCODE":"10","XCOORD":"6","YCOORD":"6","LATITUDE":"1.0163185205222343","LONGITUDE":"103.58180571057353"},"1.32814722194857,103.862203282048":{"BUILDINGNAME":"KALLANG/WHAMPOA NEW TOWN","BLOCK":"NIL","ROAD":"NIL","POSTALCODE":"NIL","XCOORD":"30791.1875649143","YCOORD":"33441.2481819048","LATITUDE":"1.3187051622547397","LONGITUDE":"103.8583988408877"},"1.28569398886979,103.837524510188":{"BUILDINGNAME":"10","BLOCK":"10","ROAD":"CHIN SWEE ROAD","POSTALCODE":"10","XCOORD":"6","YCOORD":"6","LATITUDE":"1.0163185205222343","LONGITUDE":"103.58180571057353"},"1.375925022,103.8587986":{"BUILDINGNAME":"10","BLOCK":"10","ROAD":"CENTRAL EXPRESSWAY","POSTALCODE":"10","XCOORD":"6","YCOORD":"6","LATITUDE":"1.0163185205222343","LONGITUDE":"103.58180571057353"},"1.38861,103.85806":{"BUILDINGNAME":"10","BLOCK":"10","ROAD":"CENTRAL EXPRESSWAY","POSTALCODE":"10","XCOORD":"6","YCOORD":"6","LATITUDE":"1.0163185205222343","LONGITUDE":"103.58180571057353"},"1.31384231654635,103.845603032574":{"BUILDINGNAME":"KALLANG/WHAMPOA NEW TOWN","BLOCK":"NIL","ROAD":"NIL","POSTALCODE":"NIL","XCOORD":"30791.1875649143","YCOORD":"33441.2481819048","LATITUDE":"1.3187051622547397","LONGITUDE":"103.8583988408877"},"1.35296,103.85719":{"BUILDINGNAME":"10","BLOCK":"10","ROAD":"CENTRAL EXPRESSWAY","POSTALCODE":"10","XCOORD":"6","YCOORD":"6","LATITUDE":"1.0163185205222343","LONGITUDE":"103.58180571057353"},"1.447023728,103.7716543":{"BUILDINGNAME":"null","BLOCK":"214","ROAD":"MARSILING LANE","POSTALCODE":"730214","XCOORD":"21144.3097743","YCOORD":"47624.2952831","LATITUDE":"1.4469708454034598","LONGITUDE":"103.77171336418128"},"1.445554109,103.7683397":{"BUILDINGNAME":"BLK C (WOODLANDS CHECKPOINT)","BLOCK":"21","ROAD":"WOODLANDS CROSSING","POSTALCODE":"738203","XCOORD":"20799.5400659","YCOORD":"47519.6825026","LATITUDE":"1.446024679203976","LONGITUDE":"103.76861529259779"},"1.35047790791386,103.791033581325":{"BUILDINGNAME":"10","BLOCK":"10","ROAD":"BUKIT TIMAH EXPRESSWAY","POSTALCODE":"10","XCOORD":"6","YCOORD":"6","LATITUDE":"1.0163185205222343","LONGITUDE":"103.58180571057353"},"1.429588536,103.769311":{"BUILDINGNAME":"10","BLOCK":"10","ROAD":"BUKIT TIMAH EXPRESSWAY","POSTALCODE":"10","XCOORD":"6","YCOORD":"6","LATITUDE":"1.0163185205222343","LONGITUDE":"103.58180571057353"},"1.3865,103.7747":{"BUILDINGNAME":"BUKIT PANJANG NEW TOWN","BLOCK":"NIL","ROAD":"NIL","POSTALCODE":"NIL","XCOORD":"20834.7389403434","YCOORD":"40005.2348265281","LATITUDE":"1.3780667747909214","LONGITUDE":"103.76893345960268"},"1.33831,103.98032":{"BUILDINGNAME":"10","BLOCK":"10","ROAD":"EAST COAST PARKWAY","POSTALCODE":"10","XCOORD":"6","YCOORD":"6","LATITUDE":"1.0163185205222343","LONGITUDE":"103.58180571057353"},"1.2958550156561,103.880314665981":{"BUILDINGNAME":"10","BLOCK":"10","ROAD":"KALLANG PAYA LEBAR EXPRESSWAY","POSTALCODE":"10","XCOORD":"6","YCOORD":"6","LATITUDE":"1.0163185205222343","LONGITUDE":"103.58180571057353"},"1.32743,103.97383":{"BUILDINGNAME":"10","BLOCK":"10","ROAD":"EAST COAST PARKWAY","POSTALCODE":"10","XCOORD":"6","YCOORD":"6","LATITUDE":"1.0163185205222343","LONGITUDE":"103.58180571057353"},"1.309330837,103.9350504":{"BUILDINGNAME":"10","BLOCK":"10","ROAD":"EAST COAST PARKWAY","POSTALCODE":"10","XCOORD":"6","YCOORD":"6","LATITUDE":"1.0163185205222343","LONGITUDE":"103.58180571057353"},"1.30145145166066,103.910596320237":{"BUILDINGNAME":"10","BLOCK":"10","ROAD":"STILL ROAD SOUTH","POSTALCODE":"10","XCOORD":"6","YCOORD":"6","LATITUDE":"1.0163185205222343","LONGITUDE":"103.58180571057353"},"1.297512569,103.8983019":{"BUILDINGNAME":"10","BLOCK":"10","ROAD":"EAST COAST PARKWAY","POSTALCODE":"10","XCOORD":"6","YCOORD":"6","LATITUDE":"1.0163185205222343","LONGITUDE":"103.58180571057353"},"1.29565733262976,103.885283049309":{"BUILDINGNAME":"10","BLOCK":"10","ROAD":"MARINA EAST DRIVE","POSTALCODE":"10","XCOORD":"6","YCOORD":"6","LATITUDE":"1.0163185205222343","LONGITUDE":"103.58180571057353"},"1.2871,103.79633":{"BUILDINGNAME":"10","BLOCK":"10","ROAD":"AYER RAJAH EXPRESSWAY","POSTALCODE":"10","XCOORD":"6","YCOORD":"6","LATITUDE":"1.0163185205222343","LONGITUDE":"103.58180571057353"},"1.27237,103.8324":{"BUILDINGNAME":"10","BLOCK":"10","ROAD":"AYER RAJAH EXPRESSWAY","POSTALCODE":"10","XCOORD":"6","YCOORD":"6","LATITUDE":"1.0163185205222343","LONGITUDE":"103.58180571057353"},"1.348697862,103.6350413":{"BUILDINGNAME":"TUAS CHECKPOINT COMPLEX","BLOCK":"501","ROAD":"JALAN AHMAD IBRAHIM","POSTALCODE":"639937","XCOORD":"5979.16292862","YCOORD":"36603.2472042","LATITUDE":"1.347293201169201","LONGITUDE":"103.63544809255269"},"1.27877,103.82375":{"BUILDINGNAME":"10","BLOCK":"10","ROAD":"AYER RAJAH EXPRESSWAY","POSTALCODE":"10","XCOORD":"6","YCOORD":"6","LATITUDE":"1.0163185205222343","LONGITUDE":"103.58180571057353"},"1.29792,103.78205":{"BUILDINGNAME":"10","BLOCK":"10","ROAD":"AYER RAJAH EXPRESSWAY","POSTALCODE":"10","XCOORD":"6","YCOORD":"6","LATITUDE":"1.0163185205222343","LONGITUDE":"103.58180571057353"},"1.33344648135658,103.652700847056":{"BUILDINGNAME":"10","BLOCK":"10","ROAD":"JALAN AHMAD IBRAHIM","POSTALCODE":"10","XCOORD":"6","YCOORD":"6","LATITUDE":"1.0163185205222343","LONGITUDE":"103.58180571057353"},"1.29939,103.7799":{"BUILDINGNAME":"10","BLOCK":"10","ROAD":"AYER RAJAH EXPRESSWAY","POSTALCODE":"10","XCOORD":"6","YCOORD":"6","LATITUDE":"1.0163185205222343","LONGITUDE":"103.58180571057353"},"1.312019,103.763002":{"BUILDINGNAME":"CLEMENTI NEW TOWN","BLOCK":"NIL","ROAD":"NIL","POSTALCODE":"NIL","XCOORD":"20514.2581377875","YCOORD":"32638.4229808623","LATITUDE":"1.3114439117033176","LONGITUDE":"103.76605553030518"},"1.32153,103.75273":{"BUILDINGNAME":"10","BLOCK":"10","ROAD":"AYER RAJAH EXPRESSWAY","POSTALCODE":"10","XCOORD":"6","YCOORD":"6","LATITUDE":"1.0163185205222343","LONGITUDE":"103.58180571057353"},"1.31023,103.76438":{"BUILDINGNAME":"10","BLOCK":"10","ROAD":"AYER RAJAH EXPRESSWAY","POSTALCODE":"10","XCOORD":"6","YCOORD":"6","LATITUDE":"1.0163185205222343","LONGITUDE":"103.58180571057353"},"1.32227,103.67453":{"BUILDINGNAME":"10","BLOCK":"10","ROAD":"AYER RAJAH EXPRESSWAY","POSTALCODE":"10","XCOORD":"6","YCOORD":"6","LATITUDE":"1.0163185205222343","LONGITUDE":"103.58180571057353"},"1.25999999687243,103.823611110166":{"BUILDINGNAME":"LINKWAY","BLOCK":"NIL","ROAD":"NIL","POSTALCODE":"NIL","XCOORD":"26898.8594775597","YCOORD":"26981.066010185","LATITUDE":"1.260281651716409","LONGITUDE":"103.82342448848792"},"1.26027777363278,103.823888890049":{"BUILDINGNAME":"LINKWAY","BLOCK":"NIL","ROAD":"NIL","POSTALCODE":"NIL","XCOORD":"26949.0999056451","YCOORD":"26920.1089496875","LATITUDE":"1.2597303790403176","LONGITUDE":"103.82387591638455"},"1.3309693,103.9168616":{"BUILDINGNAME":"BEDOK NEW TOWN","BLOCK":"NIL","ROAD":"NIL","POSTALCODE":"NIL","XCOORD":"38289.2796214735","YCOORD":"34703.6243682167","LATITUDE":"1.3301200307264371","LONGITUDE":"103.92577345595295"},"1.326024822,103.905625":{"BUILDINGNAME":"10","BLOCK":"10","ROAD":"PAN ISLAND EXPRESSWAY","POSTALCODE":"10","XCOORD":"6","YCOORD":"6","LATITUDE":"1.0163185205222343","LONGITUDE":"103.58180571057353"},"1.322875288,103.8910793":{"BUILDINGNAME":"10","BLOCK":"10","ROAD":"PAN ISLAND EXPRESSWAY","POSTALCODE":"10","XCOORD":"6","YCOORD":"6","LATITUDE":"1.0163185205222343","LONGITUDE":"103.58180571057353"},"1.32036078126842,103.877174116489":{"BUILDINGNAME":"null","BLOCK":"60","ROAD":"JALAN KOLAM AYER","POSTALCODE":"347486","XCOORD":"32886.9654721","YCOORD":"33641.1474044","LATITUDE":"1.3205127171413262","LONGITUDE":"103.87723051651976"},"1.328171608,103.8685191":{"BUILDINGNAME":"10","BLOCK":"10","ROAD":"PAN ISLAND EXPRESSWAY","POSTALCODE":"10","XCOORD":"6","YCOORD":"6","LATITUDE":"1.0163185205222343","LONGITUDE":"103.58180571057353"},"1.329334,103.858222":{"BUILDINGNAME":"10","BLOCK":"10","ROAD":"PAN ISLAND EXPRESSWAY","POSTALCODE":"10","XCOORD":"6","YCOORD":"6","LATITUDE":"1.0163185205222343","LONGITUDE":"103.58180571057353"},"1.328899,103.84121":{"BUILDINGNAME":"10","BLOCK":"10","ROAD":"PAN ISLAND EXPRESSWAY","POSTALCODE":"10","XCOORD":"6","YCOORD":"6","LATITUDE":"1.0163185205222343","LONGITUDE":"103.58180571057353"},"1.32657403632366,103.826857295633":{"BUILDINGNAME":"10","BLOCK":"10","ROAD":"MOUNT PLEASANT ROAD","POSTALCODE":"10","XCOORD":"6","YCOORD":"6","LATITUDE":"1.0163185205222343","LONGITUDE":"103.58180571057353"},"1.332124,103.81768":{"BUILDINGNAME":"10","BLOCK":"10","ROAD":"ADAM ROAD","POSTALCODE":"10","XCOORD":"6","YCOORD":"6","LATITUDE":"1.0163185205222343","LONGITUDE":"103.58180571057353"},"1.349428893,103.7952799":{"BUILDINGNAME":"10","BLOCK":"10","ROAD":"PAN ISLAND EXPRESSWAY","POSTALCODE":"10","XCOORD":"6","YCOORD":"6","LATITUDE":"1.0163185205222343","LONGITUDE":"103.58180571057353"},"1.345996,103.69016":{"BUILDINGNAME":"10","BLOCK":"10","ROAD":"PAN ISLAND EXPRESSWAY","POSTALCODE":"10","XCOORD":"6","YCOORD":"6","LATITUDE":"1.0163185205222343","LONGITUDE":"103.58180571057353"},"1.33771,103.977827":{"BUILDINGNAME":"10","BLOCK":"10","ROAD":"PAN ISLAND EXPRESSWAY","POSTALCODE":"10","XCOORD":"6","YCOORD":"6","LATITUDE":"1.0163185205222343","LONGITUDE":"103.58180571057353"},"1.340298,103.945652":{"BUILDINGNAME":"10","BLOCK":"10","ROAD":"PAN ISLAND EXPRESSWAY","POSTALCODE":"10","XCOORD":"6","YCOORD":"6","LATITUDE":"1.0163185205222343","LONGITUDE":"103.58180571057353"},"1.361742,103.703341":{"BUILDINGNAME":"10","BLOCK":"10","ROAD":"PAN ISLAND EXPRESSWAY","POSTALCODE":"10","XCOORD":"6","YCOORD":"6","LATITUDE":"1.0163185205222343","LONGITUDE":"103.58180571057353"},"1.356299,103.716071":{"BUILDINGNAME":"10","BLOCK":"10","ROAD":"JURONG WEST AVENUE 2","POSTALCODE":"10","XCOORD":"6","YCOORD":"6","LATITUDE":"1.0163185205222343","LONGITUDE":"103.58180571057353"},"1.322893,103.6635051":{"BUILDINGNAME":"10","BLOCK":"10","ROAD":"AYER RAJAH EXPRESSWAY","POSTALCODE":"10","XCOORD":"6","YCOORD":"6","LATITUDE":"1.0163185205222343","LONGITUDE":"103.58180571057353"},"1.354245,103.963782":{"BUILDINGNAME":"10","BLOCK":"10","ROAD":"TAMPINES EXPRESSWAY","POSTALCODE":"10","XCOORD":"6","YCOORD":"6","LATITUDE":"1.0163185205222343","LONGITUDE":"103.58180571057353"},"1.37704704,103.92946983":{"BUILDINGNAME":"10","BLOCK":"10","ROAD":"TAMPINES EXPRESSWAY","POSTALCODE":"10","XCOORD":"6","YCOORD":"6","LATITUDE":"1.0163185205222343","LONGITUDE":"103.58180571057353"},"1.37988658,103.92009174":{"BUILDINGNAME":"10","BLOCK":"10","ROAD":"TAMPINES EXPRESSWAY","POSTALCODE":"10","XCOORD":"6","YCOORD":"6","LATITUDE":"1.0163185205222343","LONGITUDE":"103.58180571057353"},"1.38432741,103.91585701":{"BUILDINGNAME":"10","BLOCK":"10","ROAD":"TAMPINES EXPRESSWAY","POSTALCODE":"10","XCOORD":"6","YCOORD":"6","LATITUDE":"1.0163185205222343","LONGITUDE":"103.58180571057353"},"1.39559294,103.90515712":{"BUILDINGNAME":"10","BLOCK":"10","ROAD":"TAMPINES EXPRESSWAY","POSTALCODE":"10","XCOORD":"6","YCOORD":"6","LATITUDE":"1.0163185205222343","LONGITUDE":"103.58180571057353"},"1.40002575,103.85702534":{"BUILDINGNAME":"10","BLOCK":"10","ROAD":"SELETAR WEST LINK","POSTALCODE":"10","XCOORD":"6","YCOORD":"6","LATITUDE":"1.0163185205222343","LONGITUDE":"103.58180571057353"},"1.39748842,103.85400467":{"BUILDINGNAME":"10","BLOCK":"10","ROAD":"TAMPINES EXPRESSWAY","POSTALCODE":"10","XCOORD":"6","YCOORD":"6","LATITUDE":"1.0163185205222343","LONGITUDE":"103.58180571057353"},"1.38647,103.74143":{"BUILDINGNAME":"CHOA CHU KANG NEW TOWN","BLOCK":"NIL","ROAD":"NIL","POSTALCODE":"NIL","XCOORD":"18366.2526256677","YCOORD":"40843.7247884462","LATITUDE":"1.3856490617010244","LONGITUDE":"103.74675204216453"},"1.39059,103.7717":{"BUILDINGNAME":"10","BLOCK":"10","ROAD":"KRANJI EXPRESSWAY","POSTALCODE":"10","XCOORD":"6","YCOORD":"6","LATITUDE":"1.0163185205222343","LONGITUDE":"103.58180571057353"},"1.3899,103.74843":{"BUILDINGNAME":"10","BLOCK":"10","ROAD":"CHOA CHU KANG DRIVE","POSTALCODE":"10","XCOORD":"6","YCOORD":"6","LATITUDE":"1.0163185205222343","LONGITUDE":"103.58180571057353"},"1.3664,103.70899":{"BUILDINGNAME":"10","BLOCK":"10","ROAD":"KRANJI EXPRESSWAY","POSTALCODE":"10","XCOORD":"6","YCOORD":"6","LATITUDE":"1.0163185205222343","LONGITUDE":"103.58180571057353"},"1.39466333,103.83474601":{"BUILDINGNAME":"10","BLOCK":"10","ROAD":"SELETAR EXPRESSWAY","POSTALCODE":"10","XCOORD":"6","YCOORD":"6","LATITUDE":"1.0163185205222343","LONGITUDE":"103.58180571057353"},"1.39474081,103.81797086":{"BUILDINGNAME":"10","BLOCK":"10","ROAD":"SELETAR EXPRESSWAY","POSTALCODE":"10","XCOORD":"6","YCOORD":"6","LATITUDE":"1.0163185205222343","LONGITUDE":"103.58180571057353"},"1.422857,103.773005":{"BUILDINGNAME":"10","BLOCK":"10","ROAD":"SELETAR EXPRESSWAY","POSTALCODE":"10","XCOORD":"6","YCOORD":"6","LATITUDE":"1.0163185205222343","LONGITUDE":"103.58180571057353"},"1.42214311,103.79542062":{"BUILDINGNAME":"10","BLOCK":"10","ROAD":"SELETAR EXPRESSWAY","POSTALCODE":"10","XCOORD":"6","YCOORD":"6","LATITUDE":"1.0163185205222343","LONGITUDE":"103.58180571057353"},"1.42627712,103.78716637":{"BUILDINGNAME":"10","BLOCK":"10","ROAD":"SELETAR EXPRESSWAY","POSTALCODE":"10","XCOORD":"6","YCOORD":"6","LATITUDE":"1.0163185205222343","LONGITUDE":"103.58180571057353"},"1.41270056,103.80642712":{"BUILDINGNAME":"10","BLOCK":"10","ROAD":"MANDAI ROAD","POSTALCODE":"10","XCOORD":"6","YCOORD":"6","LATITUDE":"1.0163185205222343","LONGITUDE":"103.58180571057353"},"1.317036,103.988598":{},"1.27066408655104,103.856977943394":{},"1.323604823,103.8587802":{},"1.28036584335876,103.830451146503":{},"1.36728572,103.7794698":{},"1.414142,103.771168":{},"1.3983,103.774247":{},"1.29158484,103.8615987":{},"1.32618,103.73028":{},"1.341244001,103.6439134":{},"1.347645829,103.6366955":{},"1.344205,103.78577":{},"1.332691,103.770278":{}}